{"type": "FeatureCollection", "features": [ {"type": "Feature", "properties": {"norad_id": 66440, "name": "STARLINK-35405", "group": "last-30-days", "lat": -40.369176026343695, "lon": -46.89056520509366, "alt_km": 433.0714039935074, "timestamp": "2025-12-09T07:41:31.971538+00:00", "meta": {"OBJECT_NAME": "STARLINK-35405", "OBJECT_ID": "2025-259U", "EPOCH": "2025-12-09T00:00:02.000160", "MEAN_MOTION": 15.46759775, "ECCENTRICITY": 8.066e-05, "INCLINATION": 43.001, "RA_OF_ASC_NODE": 69.1492, "ARG_OF_PERICENTER": 277.2362, "MEAN_ANOMALY": 348.6828, "EPHEMERIS_TYPE": 0, "CLASSIFICATION_TYPE": "U", "NORAD_CAT_ID": 66440, "ELEMENT_SET_NO": 999, "REV_AT_EPOCH": 567, "BSTAR": -0.044313206, "MEAN_MOTION_DOT": -0.02024914, "MEAN_MOTION_DDOT": 0}, "tle": {"line1": "1 66440U 25259U   25343.00002315 -.02024914  00000+0 -44313-1 0  9990", "line2": "2 66440  43.0010  69.1492 0000806 277.2362 348.6828 15.46759775  5677"}}, "geometry": {"type": "Point", "coordinates": [-46.89056520509366, -40.369176026343695]}}, {"type": "Feature", "properties": {"norad_id": 66441, "name": "STARLINK-35426", "group": "last-30-days", "lat": -42.757382524984884, "lon": -29.90190900839148, "alt_km": 415.90886763772596, "timestamp": "2025-12-09T07:41:31.971548+00:00", "meta": {"OBJECT_NAME": "STARLINK-35426", "OBJECT_ID": "2025-259V", "EPOCH": "2025-12-08T13:33:01.912608", "MEAN_MOTION": 15.50516656, "ECCENTRICITY": 0.0004241, "INCLINATION": 43.0012, "RA_OF_ASC_NODE": 71.6764, "ARG_OF_PERICENTER": 306.6467, "MEAN_ANOMALY": 53.4003, "EPHEMERIS_TYPE": 0, "CLASSIFICATION_TYPE": "U", "NORAD_CAT_ID": 66441, "ELEMENT_SET_NO": 999, "REV_AT_EPOCH": 552, "BSTAR": 0.0027132, "MEAN_MOTION_DOT": 0.00161833, "MEAN_MOTION_DDOT": 0}, "tle": {"line1": "1 66441U 25259V   25342.56460547  .00161833  00000+0  27132-2 0  9995", "line2": "2 66441  43.0012  71.6764 0004241 306.6467  53.4003 15.50516656  5524"}}, "geometry": {"type": "Point", "coordinates": [-29.90190900839148, -42.757382524984884]}}, {"type": "Feature", "properties": {"norad_id": 66442, "name": "STARLINK-34724", "group": "last-30-days", "lat": -42.68832879042398, "lon": -30.925075885463652, "alt_km": 424.9767255818433, "timestamp": "2025-12-09T07:41:31.971558+00:00", "meta": {"OBJECT_NAME": "STARLINK-34724", "OBJECT_ID": "2025-259W", "EPOCH": "2025-12-09T00:00:02.000160", "MEAN_MOTION": 15.49472751, "ECCENTRICITY": 0.00013126, "INCLINATION": 43.0009, "RA_OF_ASC_NODE": 69.1254, "ARG_OF_PERICENTER": 264.5323, "MEAN_ANOMALY": 10.4834, "EPHEMERIS_TYPE": 0, "CLASSIFICATION_TYPE": "U", "NORAD_CAT_ID": 66442, "ELEMENT_SET_NO": 999, "REV_AT_EPOCH": 567, "BSTAR": -0.042422799, "MEAN_MOTION_DOT": -0.02121366, "MEAN_MOTION_DDOT": 0}, "tle": {"line1": "1 66442U 25259W   25343.00002315 -.02121366  00000+0 -42423-1 0  9991", "line2": "2 66442  43.0009  69.1254 0001312 264.5323  10.4834 15.49472751  5672"}}, "geometry": {"type": "Point", "coordinates": [-30.925075885463652, -42.68832879042398]}}, {"type": "Feature", "properties": {"norad_id": 66443, "name": "STARLINK-35219", "group": "last-30-days", "lat": -42.96571503418791, "lon": -24.53770915137578, "alt_km": 417.4358398289769, "timestamp": "2025-12-09T07:41:31.971569+00:00", "meta": {"OBJECT_NAME": "STARLINK-35219", "OBJECT_ID": "2025-259X", "EPOCH": "2025-12-08T22:48:33.717600", "MEAN_MOTION": 15.50624736, "ECCENTRICITY": 9.604e-05, "INCLINATION": 43, "RA_OF_ASC_NODE": 69.411, "ARG_OF_PERICENTER": 286.7645, "MEAN_ANOMALY": 73.311, "EPHEMERIS_TYPE": 0, "CLASSIFICATION_TYPE": "U", "NORAD_CAT_ID": 66443, "ELEMENT_SET_NO": 999, "REV_AT_EPOCH": 547, "BSTAR": 0.0017405774, "MEAN_MOTION_DOT": 0.00103295, "MEAN_MOTION_DDOT": 0}, "tle": {"line1": "1 66443U 25259X   25342.95039025  .00103295  00000+0  17406-2 0  9994", "line2": "2 66443  43.0000  69.4110 0000960 286.7645  73.3110 15.50624736  5476"}}, "geometry": {"type": "Point", "coordinates": [-24.53770915137578, -42.96571503418791]}}, {"type": "Feature", "properties": {"norad_id": 66444, "name": "STARLINK-35360", "group": "last-30-days", "lat": -42.80818851656816, "lon": -16.481557164160588, "alt_km": 416.310200813401, "timestamp": "2025-12-09T07:41:31.971579+00:00", "meta": {"OBJECT_NAME": "STARLINK-35360", "OBJECT_ID": "2025-259Y", "EPOCH": "2025-12-08T15:03:17.437824", "MEAN_MOTION": 15.50615761, "ECCENTRICITY": 0.0002256, "INCLINATION": 43.0012, "RA_OF_ASC_NODE": 71.2839, "ARG_OF_PERICENTER": 271.2736, "MEAN_ANOMALY": 88.7866, "EPHEMERIS_TYPE": 0, "CLASSIFICATION_TYPE": "U", "NORAD_CAT_ID": 66444, "ELEMENT_SET_NO": 999, "REV_AT_EPOCH": 553, "BSTAR": 0.0019177, "MEAN_MOTION_DOT": 0.00113963, "MEAN_MOTION_DDOT": 0}, "tle": {"line1": "1 66444U 25259Y   25342.62728516  .00113963  00000+0  19177-2 0  9999", "line2": "2 66444  43.0012  71.2839 0002256 271.2736  88.7866 15.50615761  5532"}}, "geometry": {"type": "Point", "coordinates": [-16.481557164160588, -42.80818851656816]}}, {"type": "Feature", "properties": {"norad_id": 66445, "name": "STARLINK-34698", "group": "last-30-days", "lat": -42.98204476440378, "lon": -21.91634003857037, "alt_km": 416.35716091270297, "timestamp": "2025-12-09T07:41:31.971589+00:00", "meta": {"OBJECT_NAME": "STARLINK-34698", "OBJECT_ID": "2025-259Z", "EPOCH": "2025-12-08T13:31:32.441088", "MEAN_MOTION": 15.50582419, "ECCENTRICITY": 0.0002429, "INCLINATION": 43.0056, "RA_OF_ASC_NODE": 71.6672, "ARG_OF_PERICENTER": 260.1314, "MEAN_ANOMALY": 99.9272, "EPHEMERIS_TYPE": 0, "CLASSIFICATION_TYPE": "U", "NORAD_CAT_ID": 66445, "ELEMENT_SET_NO": 999, "REV_AT_EPOCH": 541, "BSTAR": 0.0015532, "MEAN_MOTION_DOT": 0.00091866, "MEAN_MOTION_DDOT": 0}, "tle": {"line1": "1 66445U 25259Z   25342.56356992  .00091866  00000+0  15532-2 0  9996", "line2": "2 66445  43.0056  71.6672 0002429 260.1314  99.9272 15.50582419  5416"}}, "geometry": {"type": "Point", "coordinates": [-21.91634003857037, -42.98204476440378]}}, {"type": "Feature", "properties": {"norad_id": 66446, "name": "STARLINK-34986", "group": "last-30-days", "lat": -42.92116598537031, "lon": -19.154152903282085, "alt_km": 417.7225480405232, "timestamp": "2025-12-09T07:41:31.971602+00:00", "meta": {"OBJECT_NAME": "STARLINK-34986", "OBJECT_ID": "2025-259AA", "EPOCH": "2025-12-08T22:47:33.457056", "MEAN_MOTION": 15.50657569, "ECCENTRICITY": 9.812e-05, "INCLINATION": 42.9984, "RA_OF_ASC_NODE": 69.4048, "ARG_OF_PERICENTER": 344.9285, "MEAN_ANOMALY": 15.1546, "EPHEMERIS_TYPE": 0, "CLASSIFICATION_TYPE": "U", "NORAD_CAT_ID": 66446, "ELEMENT_SET_NO": 999, "REV_AT_EPOCH": 558, "BSTAR": 0.0021305928, "MEAN_MOTION_DOT": 0.00127053, "MEAN_MOTION_DDOT": 0}, "tle": {"line1": "1 66446U 25259AA  25342.94969279  .00127053  00000+0  21306-2 0  9991", "line2": "2 66446  42.9984  69.4048 0000981 344.9285  15.1546 15.50657569  5587"}}, "geometry": {"type": "Point", "coordinates": [-19.154152903282085, -42.92116598537031]}}, {"type": "Feature", "properties": {"norad_id": 66447, "name": "STARLINK-34851", "group": "last-30-days", "lat": -42.6561937607918, "lon": -14.174201918610702, "alt_km": 417.41643483450844, "timestamp": "2025-12-09T07:41:31.971612+00:00", "meta": {"OBJECT_NAME": "STARLINK-34851", "OBJECT_ID": "2025-259AB", "EPOCH": "2025-12-08T22:46:35.261472", "MEAN_MOTION": 15.50606148, "ECCENTRICITY": 0.00010461, "INCLINATION": 42.9997, "RA_OF_ASC_NODE": 69.3985, "ARG_OF_PERICENTER": 277.5852, "MEAN_ANOMALY": 82.4889, "EPHEMERIS_TYPE": 0, "CLASSIFICATION_TYPE": "U", "NORAD_CAT_ID": 66447, "ELEMENT_SET_NO": 999, "REV_AT_EPOCH": 547, "BSTAR": 0.001458982, "MEAN_MOTION_DOT": 0.00086281, "MEAN_MOTION_DDOT": 0}, "tle": {"line1": "1 66447U 25259AB  25342.94901923  .00086281  00000+0  14590-2 0  9998", "line2": "2 66447  42.9997  69.3985 0001046 277.5852  82.4889 15.50606148  5477"}}, "geometry": {"type": "Point", "coordinates": [-14.174201918610702, -42.6561937607918]}}, {"type": "Feature", "properties": {"norad_id": 66448, "name": "STARLINK-35355", "group": "last-30-days", "lat": -42.434229767841614, "lon": -11.610963252649881, "alt_km": 417.40526096778103, "timestamp": "2025-12-09T07:41:31.971622+00:00", "meta": {"OBJECT_NAME": "STARLINK-35355", "OBJECT_ID": "2025-259AC", "EPOCH": "2025-12-08T22:46:05.629728", "MEAN_MOTION": 15.50602449, "ECCENTRICITY": 0.00011235, "INCLINATION": 43.0007, "RA_OF_ASC_NODE": 69.3957, "ARG_OF_PERICENTER": 293.8629, "MEAN_ANOMALY": 66.2114, "EPHEMERIS_TYPE": 0, "CLASSIFICATION_TYPE": "U", "NORAD_CAT_ID": 66448, "ELEMENT_SET_NO": 999, "REV_AT_EPOCH": 558, "BSTAR": 0.0014291918, "MEAN_MOTION_DOT": 0.00084482, "MEAN_MOTION_DDOT": 0}, "tle": {"line1": "1 66448U 25259AC  25342.94867627  .00084482  00000+0  14292-2 0  9991", "line2": "2 66448  43.0007  69.3957 0001123 293.8629  66.2114 15.50602449  5583"}}, "geometry": {"type": "Point", "coordinates": [-11.610963252649881, -42.434229767841614]}}, {"type": "Feature", "properties": {"norad_id": 66449, "name": "STARLINK-34720", "group": "last-30-days", "lat": -42.154302742226804, "lon": -9.075269317996732, "alt_km": 417.8733016528586, "timestamp": "2025-12-09T07:41:31.971632+00:00", "meta": {"OBJECT_NAME": "STARLINK-34720", "OBJECT_ID": "2025-259AD", "EPOCH": "2025-12-08T22:45:36.258912", "MEAN_MOTION": 15.5060001, "ECCENTRICITY": 6.245e-05, "INCLINATION": 42.9998, "RA_OF_ASC_NODE": 69.3926, "ARG_OF_PERICENTER": 331.1257, "MEAN_ANOMALY": 28.9568, "EPHEMERIS_TYPE": 0, "CLASSIFICATION_TYPE": "U", "NORAD_CAT_ID": 66449, "ELEMENT_SET_NO": 999, "REV_AT_EPOCH": 547, "BSTAR": 0.0014241501, "MEAN_MOTION_DOT": 0.00084172, "MEAN_MOTION_DDOT": 0}, "tle": {"line1": "1 66449U 25259AD  25342.94833633  .00084172  00000+0  14242-2 0  9993", "line2": "2 66449  42.9998  69.3926 0000624 331.1257  28.9568 15.50600010  5473"}}, "geometry": {"type": "Point", "coordinates": [-9.075269317996732, -42.154302742226804]}}]}